GSAT0201 (GALILEO 5)    
1 40128U 14050A   23212.30831881 -.00000069  00000+0  00000+0 0  9991
2 40128  49.9672 315.9689 1610413 139.0369 234.2791  1.85519013 60740
GSAT0202 (GALILEO 6)    
1 40129U 14050B   23208.79487664 -.00000078  00000+0  00000+0 0  9996
2 40129  49.9900 315.1803 1608285 139.7148 233.4140  1.85519682 60900
IRNSS-1C                
1 40269U 14061A   23211.90541795 -.00000164  00000+0  00000+0 0  9992
2 40269   3.8811 113.8145 0020858  12.7600 230.6667  1.00271669 32272
NAVSTAR 72 (USA 258)    
1 40294U 14068A   23210.42841647 -.00000025  00000+0  00000+0 0  9998
2 40294  56.1442  71.9082 0048584  60.3717 300.1890  2.00569259 64057
COSMOS 2501             
1 40315U 14075A   23211.28279821  .00000113  00000+0  00000+0 0  9991
2 40315  63.6418 226.9174 0020237 211.6322 148.3078  2.13101394 67418
NAVSTAR 73 (USA 260)    
1 40534U 15013A   23213.05515126  .00000066  00000+0  00000+0 0  9992
2 40534  53.4784 247.7122 0079066  25.0051 335.4563  2.00556756 61164
GSAT0203 (GALILEO 7)    
1 40544U 15017A   23211.29466112 -.00000069  00000+0  00000+0 0  9995
2 40544  56.8998  10.2512 0001972 216.4613 143.5370  1.70475903 51912
GSAT0204 (GALILEO 8)    
1 40545U 15017B   23212.13476929 -.00000071  00000+0  00000+0 0  9990
2 40545  56.9064  10.2425 0002394 192.8475 167.1552  1.70475544 51930
IRNSS-1D                
1 40547U 15018A   23211.54336016 -.00000245  00000+0  00000+0 0  9992
2 40547  28.1424 258.2436 0021633 190.8362 166.1982  1.00267903 30685
BEIDOU-3S IGSO-1S       
1 40549U 15019A   23212.11578797 -.00000176  00000+0  00000+0 0  9996
2 40549  51.1643 307.9879 0040256 194.2413 303.6759  1.00263350 30532
NAVSTAR 74 (USA 262)    
1 40730U 15033A   23209.72631886 -.00000051  00000+0  00000+0 0  9998
2 40730  54.8773 310.2583 0084440  14.1065 346.1613  2.00557183 58861
BEIDOU-3S M2S           
1 40748U 15037A   23212.43085331 -.00000083  00000+0  00000+0 0  9996
2 40748  55.6837 337.9485 0009689 238.1362 121.7741  1.86233056 54539
BEIDOU-3S M1S           
1 40749U 15037B   23212.16395432 -.00000083  00000+0  00000+0 0  9993
2 40749  55.6869 337.9436 0002371 330.6111  29.3798  1.86232784 54523
GSAT0205 (GALILEO 9)    
1 40889U 15045A   23211.90277271  .00000071  00000+0  00000+0 0  9994
2 40889  55.3803 250.6767 0003083   0.7123 359.3833  1.70473574 49077
GSAT0206 (GALILEO 10)   
1 40890U 15045B   23206.84417983  .00000055  00000+0  00000+0 0  9991
2 40890  55.3819 250.8120 0001892 322.7980  37.2703  1.70473746 49018
BEIDOU-3S IGSO-2S       
1 40938U 15053A   23211.63225258 -.00000083  00000+0  00000+0 0  9990
2 40938  50.8626 271.1622 0047575 193.5684 165.2572  1.00290956 28794
NAVSTAR 75 (USA 265)    
1 41019U 15062A   23212.27299690 -.00000018  00000+0  00000+0 0  9991
2 41019  56.1298  71.6851 0087798 221.1866 138.2277  2.00562177 56732
GSAT-15                 
1 41028U 15065A   23212.89323720 -.00000260  00000+0  00000+0 0  9993
2 41028   0.0218 291.3369 0002982 177.4195 255.5489  1.00270721 28329
GSAT0209 (GALILEO 12)   
1 41174U 15079A   23212.29501094 -.00000010  00000+0  00000+0 0  9999
2 41174  55.2884 130.1638 0004114 318.4351  41.5311  1.70473797 47425
GSAT0208 (GALILEO 11)   
1 41175U 15079B   23208.40851929  .00000006  00000+0  00000+0 0  9997
2 41175  55.2851 130.2689 0003482 318.9010  41.0701  1.70473809 47197
IRNSS-1E                
1 41241U 16003A   23212.59106757 -.00000314  00000+0  00000+0 0  9999
2 41241  30.8970  78.3257 0019483 176.7375  18.2977  1.00266114 27659
NAVSTAR 76 (USA 266)    
1 41328U 16007A   23210.36998242 -.00000010  00000+0  00000+0 0  9993
2 41328  55.0074 131.3198 0071553 234.8615 124.4661  2.00551762 54749
COSMOS 2514             
1 41330U 16008A   23210.79461164 -.00000059  00000+0  00000+0 0  9995
2 41330  65.5150 348.9145 0010516 201.1511 158.8090  2.13102576 58172
IRNSS-1F                
1 41384U 16015A   23211.92492267  .00000158  00000+0  00000+0 0  9995
2 41384   2.8626 131.5361 0017842 181.2956   0.8495  1.00273528 27104
BEIDOU-2 IGSO-6         
1 41434U 16021A   23212.29861303 -.00000135  00000+0  00000+0 0  9996
2 41434  58.6987  48.6218 0046287 217.9929 244.6696  1.00289424 26922
IRNSS-1G                
1 41469U 16027A   23212.86690002 -.00000340  00000+0  00000+0 0  9997
2 41469   2.7593 133.2515 0005193 345.4729 272.0445  1.00265818 26636
GSAT0211 (GALILEO 14)   
1 41549U 16030A   23209.70279444  .00000070  00000+0  00000+0 0  9991
2 41549  55.5280 250.7092 0003663 305.6521  54.4056  1.70473723 44674
GSAT0210 (GALILEO 13)   
1 41550U 16030B   23211.16751926  .00000073  00000+0  00000+0 0  9999
2 41550  55.5262 250.6700 0004113 269.6119  90.4363  1.70473817 44691
COSMOS 2516             
1 41554U 16032A   23213.25664521  .00000090  00000+0  00000+0 0  9990
2 41554  63.8681 227.2398 0015529 214.7699 145.1812  2.13106429 55837
BEIDOU-2 G7             
1 41586U 16037A   23212.79390064 -.00000357  00000+0  00000+0 0  9993
2 41586   1.7895  67.9302 0008167 350.9722 286.5458  1.00275583 26246
EUTELSAT 117 WEST B     
1 41589U 16038B   23212.63262330 -.00000013  00000+0  00000+0 0  9993
2 41589   0.0093 209.9266 0000259  86.9906 122.8004  1.00269686 26169
GSAT0207 (GALILEO 15)   
1 41859U 16069A   23212.00229430 -.00000010  00000+0  00000+0 0  9999
2 41859  54.9509 130.2524 0004220 303.4559  56.4996  1.70473778 41687
GSAT0212 (GALILEO 16)   
1 41860U 16069B   23212.44358446 -.00000010  00000+0  00000+0 0  9999
2 41860  54.9486 130.2372 0003075 333.5701  26.4119  1.70473968 41724
GSAT0213 (GALILEO 17)   
1 41861U 16069C   23209.28984767  .00000001  00000+0  00000+0 0  9998
2 41861  54.9499 130.3307 0004276 281.5514  78.3954  1.70472740 41669
GSAT0214 (GALILEO 18)   
1 41862U 16069D   23211.19681587 -.00000008  00000+0  00000+0 0  9994
2 41862  54.9488 130.2718 0003239 287.1367  72.8216  1.70472585 41699
SES-15                  
1 42709U 17026A   23212.11427918  .00000059  00000+0  00000+0 0  9993
2 42709   0.0179  35.4773 0001292 171.4856  13.5140  1.00283520 23635
QZS-2 (MICHIBIKI-2)     
1 42738U 17028A   23212.43554670 -.00000093  00000+0  00000+0 0  9997
2 42738  41.0976 258.3648 0755946 269.6319  79.2560  1.00274056 22593
QZS-3 (MICHIBIKI-3)     
1 42917U 17048A   23211.89056454 -.00000346  00000+0  00000+0 0  9995
2 42917   0.0624 206.1512 0001918 296.4084 253.3246  1.00267875 21819
COSMOS 2522             
1 42939U 17055A   23213.45222472  .00000088  00000+0  00000+0 0  9998
2 42939  64.1023 227.7485 0010215 242.6535 117.2950  2.13101939 45582
QZS-4 (MICHIBIKI-4)     
1 42965U 17062A   23212.75793940 -.00000318  00000+0  00000+0 0  9997
2 42965  40.6496 356.8847 0746117 268.6953  94.5497  1.00290077 21268
BEIDOU-3 M1             
1 43001U 17069A   23212.24118286 -.00000016  00000+0  00000+0 0  9999
2 43001  55.8158  97.9999 0009227 302.5360  57.4395  1.86231388 39019
BEIDOU-3 M2             
1 43002U 17069B   23212.17783227 -.00000016  00000+0  00000+0 0  9995
2 43002  55.8154  98.0377 0007663 329.7260  30.2941  1.86231065 39007
GSAT0215 (GALILEO 19)   
1 43055U 17079A   23209.92632489  .00000071  00000+0  00000+0 0  9996
2 43055  55.5043 250.5295 0004281 266.2443  93.7991  1.70474238 35014
GSAT0216 (GALILEO 20)   
1 43056U 17079B   23210.80485521  .00000073  00000+0  00000+0 0  9991
2 43056  55.5038 250.5051 0005192 271.1490  88.8862  1.70474498 35018
GSAT0217 (GALILEO 21)   
1 43057U 17079C   23212.19836611  .00000071  00000+0  00000+0 0  9994
2 43057  55.5014 250.4659 0004628 281.9472  78.0955  1.70474329 35059
GSAT0218 (GALILEO 22)   
1 43058U 17079D   23212.41841644  .00000069  00000+0  00000+0 0  9999
2 43058  55.5014 250.4573 0006091 269.2394  90.7849  1.70474318 35054
BEIDOU-3 M7             
1 43107U 18003A   23211.92881540 -.00000084  00000+0  00000+0 0  9994
2 43107  55.1397 338.6974 0004419  76.9994 283.0540  1.86232362 37767
BEIDOU-3 M8             
1 43108U 18003B   23212.40357934 -.00000084  00000+0  00000+0 0  9994
2 43108  55.1325 338.6683 0003092 238.9707 121.0032  1.86230819 37777
BEIDOU-3 M4             
1 43207U 18018A   23211.23527391 -.00000021  00000+0  00000+0 0  9997
2 43207  55.7740  98.1339 0005701 359.1430   0.9152  1.86231352 37139
BEIDOU-3 M3             
1 43208U 18018B   23209.69103831 -.00000028  00000+0  00000+0 0  9991
2 43208  55.7723  98.1903 0007365 316.8473  43.1485  1.86231292 37101
BEIDOU-3 M9             
1 43245U 18029A   23211.52490234 -.00000082  00000+0  00000+0 0  9995
2 43245  55.0359 336.4488 0000898 166.7497 193.2582  1.86232379 36299
BEIDOU-3 M10            
1 43246U 18029B   23212.52889706 -.00000083  00000+0  00000+0 0  9994
2 43246  55.0322 336.4427 0003016  13.0637 346.9501  1.86232807 36304
IRNSS-1I                
1 43286U 18035A   23204.80327170  .00000087  00000+0  00000+0 0  9992
2 43286  29.1518  90.8785 0018661 181.1278  13.5807  1.00269587 19459
COSMOS 2527             
1 43508U 18053A   23211.06447019 -.00000006  00000+0  00000+0 0  9992
2 43508  65.0792 109.1672 0007719 230.1972 129.7829  2.13102362 39836
BEIDOU-2 IGSO-7         
1 43539U 18057A   23211.84972152 -.00000120  00000+0  00000+0 0  9994
2 43539  55.1227 172.1697 0065017 231.9286 321.3775  1.00294304 18607
GSAT0221 (GALILEO 25)   
1 43564U 18060A   23212.31795902 -.00000071  00000+0  00000+0 0  9990
2 43564  57.2808  10.1426 0001605 264.6562  95.3333  1.70475803 31242
GSAT0222 (GALILEO 26)   
1 43565U 18060B   23209.60308336 -.00000064  00000+0  00000+0 0  9992
2 43565  57.2836  10.2164 0001790 200.7548 159.2542  1.70475645 31239
GSAT0219 (GALILEO 23)   
1 43566U 18060C   23209.82546737 -.00000064  00000+0  00000+0 0  9996
2 43566  57.2831  10.2129 0000736 295.2982  64.7099  1.70475855 31214
GSAT0220 (GALILEO 24)   
1 43567U 18060D   23211.21901741 -.00000068  00000+0  00000+0 0  9997
2 43567  57.2829  10.1760 0000935 265.6735  94.3276  1.70475501 31214
BEIDOU-3 M5             
1 43581U 18062A   23212.21244157  .00000093  00000+0  00000+0 0  9994
2 43581  54.1837 218.1108 0005784 273.6644  86.3027  1.86231817 34042
